IRIDIUM 36 [-]          
1 24967U 97056C   24060.61544835  .00000675  00000+0  22264-3 0  9999
2 24967  86.4011  11.8445 0002388  87.4294 272.7176 14.36652704384205
IRIDIUM 39 [-]          
1 25042U 97069D   24060.50389447  .00000959  00000+0  25377-3 0  9995
2 25042  86.3884  54.0444 0020661  87.3808 272.9760 14.47718106380397
IRIDIUM 38 [-]          
1 25043U 97069E   24060.51746219  .00000532  00000+0  17243-3 0  9991
2 25043  86.3904  72.3212 0001613 156.0283 204.0989 14.37110733378166
IRIDIUM 42 [-]          
1 25077U 97077A   24060.58152138  .00000491  00000+0  16431-3 0  9997
2 25077  86.3905  77.8905 0001853 105.1068 255.0334 14.35405346373233
IRIDIUM 45 [-]          
1 25104U 97082A   24060.58991214  .00009186  00000+0  55616-3 0  9998
2 25104  86.3700 273.1086 0166868 273.9011  84.3158 14.99461392380562
IRIDIUM 24 [-]          
1 25105U 97082B   24060.63562844  .00000457  00000+0  13611-3 0  9999
2 25105  86.3867 280.8473 0010808 191.5365 168.5589 14.41001017374995
